[{"OBJECT_NAME":"STARLINK-4727","OBJECT_ID":"2022-111AG","EPOCH":"2026-03-09T19:20:16.456128","MEAN_MOTION":15.08872566,"ECCENTRICITY":0.00015008,"INCLINATION":53.2157,"RA_OF_ASC_NODE":248.6456,"ARG_OF_PERICENTER":56.796,"MEAN_ANOMALY":303.3176,"EPHEMERIS_TYPE":0,"CLASSIFICATION_TYPE":"U","NORAD_CAT_ID":53803,"ELEMENT_SET_NO":999,"REV_AT_EPOCH":19404,"BSTAR":0.00028072561,"MEAN_MOTION_DOT":4.186e-5,"MEAN_MOTION_DDOT":0},{"OBJECT_NAME":"SL-8 DEB","OBJECT_ID":"1986-052E","EPOCH":"2026-03-08T09:24:38.203776","MEAN_MOTION":15.11223117,"ECCENTRICITY":0.00100672,"INCLINATION":74.0059,"RA_OF_ASC_NODE":66.8929,"ARG_OF_PERICENTER":314.4934,"MEAN_ANOMALY":45.5435,"EPHEMERIS_TYPE":0,"CLASSIFICATION_TYPE":"U","NORAD_CAT_ID":16867,"ELEMENT_SET_NO":999,"REV_AT_EPOCH":11371,"BSTAR":0.0018795551,"MEAN_MOTION_DOT":0.0003173,"MEAN_MOTION_DDOT":0}]
